[{"OBJECT_NAME":"SAUDISAT 4","OBJECT_ID":"2014-033G","EPOCH":"2026-03-09T23:14:52.668960","MEAN_MOTION":14.79390687,"ECCENTRICITY":0.00457103,"INCLINATION":97.7413,"RA_OF_ASC_NODE":218.6273,"ARG_OF_PERICENTER":37.8064,"MEAN_ANOMALY":322.6344,"EPHEMERIS_TYPE":0,"CLASSIFICATION_TYPE":"U","NORAD_CAT_ID":40016,"ELEMENT_SET_NO":999,"REV_AT_EPOCH":63140,"BSTAR":0.00014306526,"MEAN_MOTION_DOT":1.033e-5,"MEAN_MOTION_DDOT":0},{"OBJECT_NAME":"FENGYUN 1C DEB","OBJECT_ID":"1999-025CXY","EPOCH":"2026-03-08T03:52:40.652832","MEAN_MOTION":14.79881219,"ECCENTRICITY":0.00110174,"INCLINATION":99.1801,"RA_OF_ASC_NODE":51.208,"ARG_OF_PERICENTER":222.0126,"MEAN_ANOMALY":138.0238,"EPHEMERIS_TYPE":0,"CLASSIFICATION_TYPE":"U","NORAD_CAT_ID":32331,"ELEMENT_SET_NO":999,"REV_AT_EPOCH":61878,"BSTAR":0.008104872,"MEAN_MOTION_DOT":0.00061681,"MEAN_MOTION_DDOT":0}]
